NORAD_CAT_ID,OBJECT_NAME,OBJECT_TYPE,EPOCH,MEAN_MOTION,ECCENTRICITY,INCLINATION,RA_OF_ASC_NODE,ARG_OF_PERICENTER,MEAN_ANOMALY,BSTAR,MEAN_MOTION_DOT,MEAN_MOTION_DDOT,TLE_LINE0,TLE_LINE1,TLE_LINE2,SEMIMAJOR_AXIS,PERIOD,APOGEE,PERIGEE,DECAYED
54015.0,STARLINK-5055,PAYLOAD,2024-05-07 06:39:13,15.08859713,9.82e-05,53.2178,338.1213,102.4644,257.6458,0.00021114,3.076e-05,0.0,0 STARLINK-5055,1 54015U 22125BD  24128.27723833  .00003076  00000-0  21114-3 0  9997,2 54015  53.2178 338.1213 0000982 102.4644 257.6458 15.08859713 88295,6917.82,95.436,540.364,539.006,0.0
54015.0,STARLINK-5055,PAYLOAD,2024-05-07 20:57:43,15.08827029,0.0001135,53.2178,335.4432,106.0055,254.1063,-0.00024848,-4.239e-05,0.0,0 STARLINK-5055,1 54015U 22125BD  24128.87341538 -.00004239  00000-0 -24848-3 0  9992,2 54015  53.2178 335.4432 0001135 106.0055 254.1063 15.08827029 88384,6917.92,95.438,540.57,539.0,0.0
54015.0,STARLINK-5055,PAYLOAD,2024-05-08 12:51:34,15.08836167,9.25e-05,53.2171,332.4704,104.5668,255.5427,2.5965e-05,1.26e-06,0.0,0 STARLINK-5055,1 54015U 22125BD  24129.53581484  .00000126  00000-0  25965-4 0  9993,2 54015  53.2171 332.4704 0000925 104.5668 255.5427 15.08836167 88488,6917.892,95.438,540.397,539.117,0.0
54015.0,STARLINK-5055,PAYLOAD,2024-05-08 22:23:53,15.08848971,0.0001034,53.2182,330.6873,105.01,255.1007,0.00083982,0.00013106,0.0,0 STARLINK-5055,1 54015U 22125BD  24129.93325473  .00013106  00000-0  83982-3 0  9995,2 54015  53.2182 330.6873 0001034 105.0100 255.1007 15.08848971 88493,6917.853,95.437,540.433,539.003,0.0
54015.0,STARLINK-5055,PAYLOAD,2024-05-08 23:59:16,15.08855205,0.0001009,53.2178,330.3889,102.269,257.8415,0.0010761,0.00016887,0.0,0 STARLINK-5055,1 54015U 22125BD  24129.99949409  .00016887  00000-0  10761-2 0  9995,2 54015  53.2178 330.3889 0001009 102.2690 257.8415 15.08855205 88554,6917.834,95.437,540.397,539.001,0.0
54015.0,STARLINK-5055,PAYLOAD,2024-05-09 06:20:48,15.08869726,0.0001005,53.2178,329.1992,82.8179,277.2927,0.0013114,0.00020661,0.0,0 STARLINK-5055,1 54015U 22125BD  24130.26444988  .00020661  00000-0  13114-2 0  9999,2 54015  53.2178 329.1992 0001005  82.8179 277.2927 15.08869726 88542,6917.79,95.436,540.35,538.959,0.0
54015.0,STARLINK-5055,PAYLOAD,2024-05-09 20:39:16,15.08853953,8.9e-05,53.2172,326.5232,84.9508,275.1586,0.00071865,0.00011172,0.0,0 STARLINK-5055,1 54015U 22125BD  24130.86061217  .00011172  00000-0  71865-3 0  9990,2 54015  53.2172 326.5232 0000890  84.9508 275.1586 15.08853953 88682,6917.838,95.437,540.318,539.087,0.0
54015.0,STARLINK-5055,PAYLOAD,2024-05-09 22:14:39,15.08858271,9.02e-05,53.2172,326.2258,83.643,276.4665,0.0009342,0.00014619,0.0,0 STARLINK-5055,1 54015U 22125BD  24130.92685151  .00014619  00000-0  93420-3 0  9996,2 54015  53.2172 326.2258 0000902  83.6430 276.4665 15.08858271 88647,6917.825,95.436,540.314,539.066,0.0
54015.0,STARLINK-5055,PAYLOAD,2024-05-10 12:33:08,15.08867397,0.0001987,53.2172,323.5487,81.6091,278.5126,0.0014328,0.00022606,0.0,0 STARLINK-5055,1 54015U 22125BD  24131.52301283  .00022606  00000-0  14328-2 0  9998,2 54015  53.2172 323.5487 0001987  81.6091 278.5126 15.08867397 88785,6917.797,95.436,541.036,538.287,0.0
54015.0,STARLINK-5055,PAYLOAD,2024-05-10 20:30:04,15.088593,6.93e-05,53.2176,322.0625,88.6315,271.4756,0.0030489,0.00048596,0.0,0 STARLINK-5055,1 54015U 22125BD  24131.85421545  .00048596  00000-0  30489-2 0  9990,2 54015  53.2176 322.0625 0000693  88.6315 271.4756 15.08859300 88838,6917.821,95.436,540.166,539.207,0.0
54015.0,STARLINK-5055,PAYLOAD,2024-05-11 18:45:25,15.08749395,0.0001076,53.2177,317.8992,88.5623,271.5492,-0.003013,-0.00047803,0.0,0 STARLINK-5055,1 54015U 22125BD  24132.78154572 -.00047803  00000-0 -30130-2 0  9991,2 54015  53.2177 317.8992 0001076  88.5623 271.5492 15.08749395 88970,6918.157,95.443,540.767,539.278,0.0
54015.0,STARLINK-5055,PAYLOAD,2024-05-11 21:56:13,15.08710572,9.23e-05,53.2174,317.3041,80.398,279.7116,0.0015094,0.00023731,0.0,0 STARLINK-5055,1 54015U 22125BD  24132.91404713  .00023731  00000-0  15094-2 0  9995,2 54015  53.2174 317.3041 0000923  80.3980 279.7116 15.08710572 88948,6918.276,95.446,540.78,539.502,0.0
54015.0,STARLINK-5055,PAYLOAD,2024-05-12 05:53:11,15.08722238,0.000105,53.2178,315.8184,80.0981,280.013,0.0012457,0.00019529,0.0,0 STARLINK-5055,1 54015U 22125BD  24133.24527520  .00019529  00000-0  12457-2 0  9994,2 54015  53.2178 315.8184 0001050  80.0981 280.0130 15.08722238 89048,6918.24,95.445,540.832,539.379,0.0
54015.0,STARLINK-5055,PAYLOAD,2024-05-12 18:36:18,15.0880775,0.0001291,53.2168,313.439,89.5532,270.5608,0.0035457,0.00056545,0.0,0 STARLINK-5055,1 54015U 22125BD  24133.77521598  .00056545  00000-0  35457-2 0  9995,2 54015  53.2168 313.4390 0001291  89.5532 270.5608 15.08807750 89129,6917.979,95.44,540.737,538.951,0.0
54015.0,STARLINK-5055,PAYLOAD,2024-05-12 21:47:05,15.08820299,0.0001519,53.218,312.8441,92.2747,267.8419,0.0028453,0.00045262,0.0,0 STARLINK-5055,1 54015U 22125BD  24133.90769764  .00045262  00000-0  28453-2 0  9991,2 54015  53.2180 312.8441 0001519  92.2747 267.8419 15.08820299 89093,6917.941,95.439,540.856,538.755,0.0
54015.0,STARLINK-5055,PAYLOAD,2024-05-13 18:27:05,15.08864867,0.0001368,53.2184,308.9792,87.9284,272.1865,0.0010212,0.00016013,0.0,0 STARLINK-5055,1 54015U 22125BD  24134.76880821  .00016013  00000-0  10212-2 0  9990,2 54015  53.2184 308.9792 0001368  87.9284 272.1865 15.08864867 89274,6917.804,95.436,540.616,538.723,0.0
54015.0,STARLINK-5055,PAYLOAD,2024-05-13 21:37:51,15.08870512,0.0001383,53.2186,308.3846,87.7071,272.4079,0.0010931,0.00017166,0.0,0 STARLINK-5055,1 54015U 22125BD  24134.90128559  .00017166  00000-0  10931-2 0  9997,2 54015  53.2186 308.3846 0001383  87.7071 272.4079 15.08870512 89240,6917.787,95.436,540.609,538.695,0.0
54015.0,STARLINK-5055,PAYLOAD,2024-05-14 03:59:23,15.08879062,0.0001345,53.2186,307.1947,88.1232,271.9915,0.00096714,0.00015154,0.0,0 STARLINK-5055,1 54015U 22125BD  24135.16623885  .00015154  00000-0  96714-3 0  9997,2 54015  53.2186 307.1947 0001345  88.1232 271.9915 15.08879062 89287,6917.761,95.435,540.556,538.696,0.0
54015.0,STARLINK-5055,PAYLOAD,2024-05-14 18:17:50,15.08889673,0.0002409,53.2193,304.5186,93.3181,266.8087,0.0010083,0.00015817,0.0,0 STARLINK-5055,1 54015U 22125BD  24135.76238692  .00015817  00000-0  10083-2 0  9991,2 54015  53.2193 304.5186 0002409  93.3181 266.8087 15.08889673 89376,6917.729,95.434,541.26,537.927,0.0
54015.0,STARLINK-5055,PAYLOAD,2024-05-15 03:50:07,15.08927911,8.76e-05,53.2177,302.7332,309.1003,50.9911,0.0020019,0.00031793,0.0,0 STARLINK-5055,1 54015U 22125BD  24136.15980495  .00031793  00000-0  20019-2 0  9991,2 54015  53.2177 302.7332 0000876 309.1003  50.9911 15.08927911 89486,6917.612,95.432,540.083,538.871,0.0
54015.0,STARLINK-5055,PAYLOAD,2024-05-15 14:57:50,15.08841936,0.0001732,53.2167,300.6495,59.4458,300.6705,-0.0010723,-0.00017314,0.0,0 STARLINK-5055,1 54015U 22125BD  24136.62349791 -.00017314  00000-0 -10723-2 0  9997,2 54015  53.2167 300.6495 0001732  59.4458 300.6705 15.08841936 89504,6917.874,95.437,540.938,538.541,0.0
54015.0,STARLINK-5055,PAYLOAD,2024-05-15 18:08:36,15.0884812,0.0001475,53.2182,300.0565,65.7237,294.3909,0.00014693,2.052e-05,0.0,0 STARLINK-5055,1 54015U 22125BD  24136.75597910  .00002052  00000-0  14693-3 0  9991,2 54015  53.2182 300.0565 0001475  65.7237 294.3909 15.08848120 89576,6917.856,95.437,540.741,538.7,0.0
54015.0,STARLINK-5055,PAYLOAD,2024-05-16 03:40:55,15.08855791,0.000157,53.2187,298.2726,69.4895,290.6266,0.0013814,0.00021775,0.0,0 STARLINK-5055,1 54015U 22125BD  24137.15341874  .00021775  00000-0  13814-2 0  9998,2 54015  53.2187 298.2726 0001570  69.4895 290.6266 15.08855791 89639,6917.832,95.437,540.783,538.611,0.0
54015.0,STARLINK-5055,PAYLOAD,2024-05-16 19:34:47,15.08854624,0.0002097,53.2175,295.2979,67.1521,292.9692,0.0017934,0.00028381,0.0,0 STARLINK-5055,1 54015U 22125BD  24137.81582309  .00028381  00000-0  17934-2 0  9998,2 54015  53.2175 295.2979 0002097  67.1521 292.9692 15.08854624 89732,6917.836,95.437,541.151,538.25,0.0
54015.0,STARLINK-5055,PAYLOAD,2024-05-16 21:10:09,15.08855225,0.0001329,53.2173,295.0002,58.346,301.7662,0.0015377,0.00024279,0.0,0 STARLINK-5055,1 54015U 22125BD  24137.88205915  .00024279  00000-0  15377-2 0  9991,2 54015  53.2173 295.0002 0001329  58.3460 301.7662 15.08855225 89695,6917.834,95.437,540.618,538.779,0.0
54015.0,STARLINK-5055,PAYLOAD,2024-05-17 13:04:02,15.08806766,0.0001601,53.2169,292.029,88.0756,272.042,0.00083926,0.00013082,0.0,0 STARLINK-5055,1 54015U 22125BD  24138.54447054  .00013082  00000-0  83926-3 0  9993,2 54015  53.2169 292.0290 0001601  88.0756 272.0420 15.08806766 89842,6917.982,95.44,540.955,538.739,0.0
54015.0,STARLINK-5055,PAYLOAD,2024-05-17 19:25:35,15.08818717,0.0001801,53.217,290.8386,89.1983,270.9216,0.0016812,0.00026554,0.0,0 STARLINK-5055,1 54015U 22125BD  24138.80943556  .00026554  00000-0  16812-2 0  9997,2 54015  53.2170 290.8386 0001801  89.1983 270.9216 15.08818717 89830,6917.945,95.439,541.056,538.565,0.0
54015.0,STARLINK-5055,PAYLOAD,2024-05-18 03:22:30,15.08852997,0.0001457,53.2171,289.3537,90.5559,269.56,0.0029414,0.00046853,0.0,0 STARLINK-5055,1 54015U 22125BD  24139.14063509  .00046853  00000-0  29414-2 0  9992,2 54015  53.2171 289.3537 0001457  90.5559 269.5600 15.08852997 89934,6917.841,95.437,540.714,538.698,0.0
54015.0,STARLINK-5055,PAYLOAD,2024-05-18 09:44:03,15.08866514,0.0002366,53.2128,288.1611,94.9061,265.2201,0.0023531,0.00037389,0.0,0 STARLINK-5055,1 54015U 22125BD  24139.40559533  .00037389  00000-0  23531-2 0  9996,2 54015  53.2128 288.1611 0002366  94.9061 265.2201 15.08866514 89976,6917.799,95.436,541.301,538.028,0.0
54015.0,STARLINK-5055,PAYLOAD,2024-05-18 14:30:12,15.08872968,0.0002072,53.2142,287.2696,96.9195,263.2033,0.0018728,0.00029671,0.0,0 STARLINK-5055,1 54015U 22125BD  24139.60431076  .00029671  00000-0  18728-2 0  9996,2 54015  53.2142 287.2696 0002072  96.9195 263.2033 15.08872968 89958,6917.78,95.435,541.078,538.211,0.0
